NORAD_CAT_ID,OBJECT_NAME,OBJECT_TYPE,EPOCH,MEAN_MOTION,ECCENTRICITY,INCLINATION,RA_OF_ASC_NODE,ARG_OF_PERICENTER,MEAN_ANOMALY,BSTAR,MEAN_MOTION_DOT,MEAN_MOTION_DDOT,TLE_LINE0,TLE_LINE1,TLE_LINE2,SEMIMAJOR_AXIS,PERIOD,APOGEE,PERIGEE,DECAYED
54779.0,STARLINK-5447,PAYLOAD,2023-09-29 17:42:30,15.08847524,0.0001659,53.2166,73.3494,93.9689,266.1493,0.00011023,1.467e-05,0.0,0 STARLINK-5447,1 54779U 22175X   23272.73785065  .00001467  00000-0  11023-3 0  9994,2 54779  53.2166  73.3494 0001659  93.9689 266.1493 15.08847524 43318,6917.857,95.437,540.87,538.575,0.0
54779.0,STARLINK-5447,PAYLOAD,2023-09-30 17:33:17,15.08846761,0.0001429,53.2163,68.8887,87.4711,272.6444,0.00011717,1.578e-05,0.0,0 STARLINK-5447,1 54779U 22175X   23273.73144977  .00001578  00000-0  11717-3 0  9999,2 54779  53.2163  68.8887 0001429  87.4711 272.6444 15.08846761 43465,6917.86,95.437,540.713,538.736,0.0
54779.0,STARLINK-5447,PAYLOAD,2023-10-01 14:13:18,15.08842552,0.0001398,53.2167,65.0228,86.8924,273.2228,2.9509e-05,1.82e-06,0.0,0 STARLINK-5447,1 54779U 22175X   23274.59256991  .00000182  00000-0  29509-4 0  9993,2 54779  53.2167  65.0228 0001398  86.8924 273.2228 15.08842552 45756,6917.873,95.437,540.705,538.77,0.0
54779.0,STARLINK-5447,PAYLOAD,2023-10-01 17:24:04,15.08844417,0.0001178,53.2158,64.4299,83.8943,276.2183,0.0002875,4.291e-05,0.0,0 STARLINK-5447,1 54779U 22175X   23274.72504987  .00004291  00000-0  28750-3 0  9990,2 54779  53.2158  64.4299 0001178  83.8943 276.2183 15.08844417 43619,6917.867,95.437,540.547,538.917,0.0
54779.0,STARLINK-5447,PAYLOAD,2023-10-01 20:34:49,15.08855802,0.000141,53.2165,63.8337,88.0222,272.0932,0.00021324,3.109e-05,0.0,0 STARLINK-5447,1 54779U 22175X   23274.85752294  .00003109  00000-0  21324-3 0  9997,2 54779  53.2165  63.8337 0001410  88.0222 272.0932 15.08855802 45796,6917.832,95.437,540.673,538.722,0.0
54779.0,STARLINK-5447,PAYLOAD,2023-10-02 18:50:15,15.0883596,0.0001693,53.2184,59.6674,79.3805,280.7378,3.7398e-06,-2.29e-06,0.0,0 STARLINK-5447,1 54779U 22175X   23275.78489609 -.00000229  00000-0  37398-5 0  9998,2 54779  53.2184  59.6674 0001693  79.3805 280.7378 15.08835960 43776,6917.893,95.438,540.929,538.587,0.0
54779.0,STARLINK-5447,PAYLOAD,2023-10-03 09:08:43,15.08834342,0.0001595,53.2181,56.9935,84.2792,275.8382,4.6747e-05,4.56e-06,0.0,0 STARLINK-5447,1 54779U 22175X   23276.38105967  .00000456  00000-0  46747-4 0  9995,2 54779  53.2181  56.9935 0001595  84.2792 275.8382 15.08834342 46028,6917.898,95.438,540.866,538.659,0.0
54779.0,STARLINK-5447,PAYLOAD,2023-10-03 17:05:38,15.08856626,0.0001567,53.2174,55.5054,95.5064,264.6107,0.00025554,3.783e-05,0.0,0 STARLINK-5447,1 54779U 22175X   23276.71224735  .00003783  00000-0  25554-3 0  9995,2 54779  53.2174  55.5054 0001567  95.5064 264.6107 15.08856626 43918,6917.83,95.437,540.779,538.611,0.0
54779.0,STARLINK-5447,PAYLOAD,2023-10-04 13:45:39,15.08846679,0.0001692,53.2182,51.645,81.9395,278.1789,0.00022806,3.344e-05,0.0,0 STARLINK-5447,1 54779U 22175X   23277.57337518  .00003344  00000-0  22806-3 0  9994,2 54779  53.2182  51.6450 0001692  81.9395 278.1789 15.08846679 46207,6917.86,95.437,540.895,538.554,0.0
54779.0,STARLINK-5447,PAYLOAD,2023-10-04 18:31:48,15.08854915,0.0001607,53.2174,50.7522,92.1974,267.9202,0.00037933,5.757e-05,0.0,0 STARLINK-5447,1 54779U 22175X   23277.77209092  .00005757  00000-0  37933-3 0  9998,2 54779  53.2174  50.7522 0001607  92.1974 267.9202 15.08854915 44072,6917.835,95.437,540.811,538.588,0.0
54779.0,STARLINK-5447,PAYLOAD,2023-10-05 02:28:44,15.08839029,0.000187,53.2174,49.2658,78.8441,281.2762,8.2729e-05,1.029e-05,0.0,0 STARLINK-5447,1 54779U 22175X   23278.10329857  .00001029  00000-0  82729-4 0  9990,2 54779  53.2174  49.2658 0001870  78.8441 281.2762 15.08839029 44122,6917.883,95.438,541.042,538.455,0.0
54779.0,STARLINK-5447,PAYLOAD,2023-10-05 13:36:26,15.08846073,0.0001617,53.217,47.1844,76.1619,283.9553,0.00022201,3.248e-05,0.0,0 STARLINK-5447,1 54779U 22175X   23278.56697485  .00003248  00000-0  22201-3 0  9998,2 54779  53.2170  47.1844 0001617  76.1619 283.9553 15.08846073 46350,6917.862,95.437,540.845,538.608,0.0
54779.0,STARLINK-5447,PAYLOAD,2023-10-05 15:11:49,15.08851974,0.0001555,53.2174,46.8847,89.6252,270.4918,0.00056886,8.78e-05,0.0,0 STARLINK-5447,1 54779U 22175X   23278.63321293  .00008780  00000-0  56886-3 0  9999,2 54779  53.2174  46.8847 0001555  89.6252 270.4918 15.08851974 44200,6917.844,95.437,540.785,538.633,0.0
54779.0,STARLINK-5447,PAYLOAD,2023-10-06 08:41:04,15.08838043,0.0001416,53.218,43.6138,82.7251,277.3902,0.00030277,4.534e-05,0.0,0 STARLINK-5447,1 54779U 22175X   23279.36186035  .00004534  00000-0  30277-3 0  9992,2 54779  53.2180  43.6138 0001416  82.7251 277.3902 15.08838043 44317,6917.886,95.438,540.731,538.772,0.0
54779.0,STARLINK-5447,PAYLOAD,2023-10-06 13:27:14,15.08838302,0.000135,53.2183,42.7214,100.272,259.8425,0.00040727,6.199e-05,0.0,0 STARLINK-5447,1 54779U 22175X   23279.56058029  .00006199  00000-0  40727-3 0  9995,2 54779  53.2183  42.7214 0001350 100.2720 259.8425 15.08838302 46505,6917.886,95.438,540.684,538.817,0.0
54779.0,STARLINK-5447,PAYLOAD,2023-10-06 15:02:37,15.08839046,0.000135,53.2182,42.4244,94.1738,265.9409,0.00038922,5.912e-05,0.0,0 STARLINK-5447,1 54779U 22175X   23279.62682089  .00005912  00000-0  38922-3 0  9997,2 54779  53.2182  42.4244 0001350  94.1738 265.9409 15.08839046 46511,6917.883,95.438,540.682,538.814,0.0
54779.0,STARLINK-5447,PAYLOAD,2023-10-07 08:31:52,15.08838436,0.0001333,53.2175,39.1537,91.9103,268.2041,0.00033804,5.096e-05,0.0,0 STARLINK-5447,1 54779U 22175X   23280.35546460  .00005096  00000-0  33804-3 0  9998,2 54779  53.2175  39.1537 0001333  91.9103 268.2041 15.08838436 44465,6917.885,95.438,540.672,538.828,0.0
54779.0,STARLINK-5447,PAYLOAD,2023-10-07 13:18:01,15.08844654,0.0001425,53.2183,38.2626,92.69,267.4255,0.00044856,6.859e-05,0.0,0 STARLINK-5447,1 54779U 22175X   23280.55418288  .00006859  00000-0  44856-3 0  9993,2 54779  53.2183  38.2626 0001425  92.6900 267.4255 15.08844654 46658,6917.866,95.437,540.717,538.745,0.0
54779.0,STARLINK-5447,PAYLOAD,2023-10-07 14:53:24,15.08853006,0.0001461,53.2185,37.9663,97.657,262.4588,0.00076061,0.00011842,0.0,0 STARLINK-5447,1 54779U 22175X   23280.62042105  .00011842  00000-0  76061-3 0  9993,2 54779  53.2185  37.9663 0001461  97.6570 262.4588 15.08853006 44502,6917.841,95.437,540.716,538.695,0.0
54779.0,STARLINK-5447,PAYLOAD,2023-10-08 00:25:43,15.08851898,0.0001381,53.2176,36.1817,94.4992,265.6158,0.00060229,9.314e-05,0.0,0 STARLINK-5447,1 54779U 22175X   23281.01785990  .00009314  00000-0  60229-3 0  9993,2 54779  53.2176  36.1817 0001381  94.4992 265.6158 15.08851898 44569,6917.844,95.437,540.664,538.754,0.0
54779.0,STARLINK-5447,PAYLOAD,2023-10-08 08:22:39,15.08837716,0.0001631,53.2185,34.6947,89.9551,270.1628,-3.3146e-05,-8.15e-06,0.0,0 STARLINK-5447,1 54779U 22175X   23281.34906252 -.00000815  00000-0 -33146-4 0  9993,2 54779  53.2185  34.6947 0001631  89.9551 270.1628 15.08837716 44616,6917.887,95.438,540.881,538.624,0.0
54779.0,STARLINK-5447,PAYLOAD,2023-10-08 14:44:11,15.0884929,0.0001724,53.2194,33.5079,94.3215,265.7975,0.00031329,4.703e-05,0.0,0 STARLINK-5447,1 54779U 22175X   23281.61401975  .00004703  00000-0  31329-3 0  9993,2 54779  53.2194  33.5079 0001724  94.3215 265.7975 15.08849290 46819,6917.852,95.437,540.91,538.524,0.0
54779.0,STARLINK-5447,PAYLOAD,2023-10-09 00:16:30,15.0884268,0.0001483,53.218,31.7217,87.413,272.7032,0.00010761,1.425e-05,0.0,0 STARLINK-5447,1 54779U 22175X   23282.01146103  .00001425  00000-0  10761-3 0  9992,2 54779  53.2180  31.7217 0001483  87.4130 272.7032 15.08842680 44714,6917.872,95.437,540.763,538.711,0.0
54779.0,STARLINK-5447,PAYLOAD,2023-10-09 12:59:35,15.0884251,0.0001787,53.219,29.344,99.0841,261.0354,0.00011785,1.588e-05,0.0,0 STARLINK-5447,1 54779U 22175X   23282.54138251  .00001588  00000-0  11785-3 0  9992,2 54779  53.2190  29.3440 0001787  99.0841 261.0354 15.08842510 46959,6917.873,95.437,540.974,538.501,0.0
54779.0,STARLINK-5447,PAYLOAD,2023-10-09 14:34:58,15.08844116,0.0001788,53.2188,29.0455,98.9421,261.1774,0.00017521,2.502e-05,0.0,0 STARLINK-5447,1 54779U 22175X   23282.60762196  .00002502  00000-0  17521-3 0  9991,2 54779  53.2188  29.0455 0001788  98.9421 261.1774 15.08844116 46964,6917.868,95.437,540.97,538.496,0.0
54779.0,STARLINK-5447,PAYLOAD,2023-10-10 11:14:59,15.08851029,0.0001684,53.2187,25.1793,100.6349,259.4832,0.00034119,5.148e-05,0.0,0 STARLINK-5447,1 54779U 22175X   23283.46873902  .00005148  00000-0  34119-3 0  9995,2 54779  53.2187  25.1793 0001684 100.6349 259.4832 15.08851029 44931,6917.847,95.437,540.877,538.547,0.0
54779.0,STARLINK-5447,PAYLOAD,2023-10-10 12:50:22,15.08855638,0.0001702,53.2182,24.8811,98.0666,262.052,0.00043445,6.636e-05,0.0,0 STARLINK-5447,1 54779U 22175X   23283.53497744  .00006636  00000-0  43445-3 0  9994,2 54779  53.2182  24.8811 0001702  98.0666 262.0520 15.08855638 47102,6917.833,95.437,540.875,538.52,0.0
54779.0,STARLINK-5447,PAYLOAD,2023-10-10 14:25:45,15.08859981,0.0001676,53.2181,24.5836,96.1283,263.9901,0.00066723,0.00010353,0.0,0 STARLINK-5447,1 54779U 22175X   23283.60121685  .00010353  00000-0  66723-3 0  9995,2 54779  53.2181  24.5836 0001676  96.1283 263.9901 15.08859981 47118,6917.819,95.436,540.844,538.525,0.0
54779.0,STARLINK-5447,PAYLOAD,2023-10-11 11:05:46,15.08838555,0.0001689,53.218,20.7153,102.1207,257.9975,0.00025345,3.748e-05,0.0,0 STARLINK-5447,1 54779U 22175X   23284.46234168  .00003748  00000-0  25345-3 0  9996,2 54779  53.2180  20.7153 0001689 102.1207 257.9975 15.08838555 45087,6917.885,95.438,540.918,538.581,0.0
54779.0,STARLINK-5447,PAYLOAD,2023-10-11 12:41:09,15.08836893,0.0001536,53.218,20.4185,84.1852,275.9315,0.00028965,4.324e-05,0.0,0 STARLINK-5447,1 54779U 22175X   23284.52858322  .00004324  00000-0  28965-3 0  9999,2 54779  53.2180  20.4185 0001536  84.1852 275.9315 15.08836893 47257,6917.89,95.438,540.817,538.692,0.0
